ORBCOMM FM37            
1 33064U 08031E   24161.93949937  .00003641  00000+0  54441-3 0  9999
2 33064  48.4409 309.2292 0006529 226.3878 278.9022 14.76637665858970
ORBCOMM FM40            
1 33065U 08031F   24161.90808823  .00004515  00000+0  64707-3 0  9992
2 33065  48.4431 298.4533 0007917 234.7489 270.2273 14.78003802859017
ORBCOMM FM109           
1 40086U 14040A   24161.75530988  .00001723  00000+0  41910-3 0  9996
2 40086  47.0047 333.3962 0001229  31.3428 328.7530 14.56721494526730
ORBCOMM FM107           
1 40087U 14040B   24161.78933517  .00001667  00000+0  40650-3 0  9992
2 40087  47.0066 334.2045 0001185 336.3066  23.7764 14.56731612526814
ORBCOMM FM106           
1 40088U 14040C   24161.77006126  .00001708  00000+0  33259-3 0  9992
2 40088  47.0593 185.1861 0016925 139.5733 220.6418 14.67167743528749
ORBCOMM FM104           
1 40090U 14040E   24161.86013326  .00001220  00000+0  31738-3 0  9994
2 40090  47.0069   3.1241 0017381 302.9143  57.0069 14.55216479526367
